NORAD_CAT_ID,OBJECT_NAME,OBJECT_TYPE,EPOCH,MEAN_MOTION,ECCENTRICITY,INCLINATION,RA_OF_ASC_NODE,ARG_OF_PERICENTER,MEAN_ANOMALY,BSTAR,MEAN_MOTION_DOT,MEAN_MOTION_DDOT,TLE_LINE0,TLE_LINE1,TLE_LINE2,SEMIMAJOR_AXIS,PERIOD,APOGEE,PERIGEE,DECAYED
54764.0,STARLINK-5458,PAYLOAD,2023-05-31 17:13:29,15.08843171,8.09e-05,53.2172,271.6021,86.3817,273.7267,5.5612e-05,5.98e-06,0.0,0 STARLINK-5458,1 54764U 22175G   23151.71769790  .00000598  00000-0  55612-4 0  9996,2 54764  53.2172 271.6021 0000809  86.3817 273.7267 15.08843171 24836,6917.871,95.437,540.295,539.176,0.0
54764.0,STARLINK-5458,PAYLOAD,2023-06-02 01:01:11,15.08842827,8.61e-05,53.2171,265.6567,78.3595,281.7494,0.00010575,1.396e-05,0.0,0 STARLINK-5458,1 54764U 22175G   23153.04249775  .00001396  00000-0  10575-3 0  9995,2 54764  53.2171 265.6567 0000861  78.3595 281.7494 15.08842827 25036,6917.872,95.437,540.332,539.141,0.0
54764.0,STARLINK-5458,PAYLOAD,2023-06-02 12:08:54,15.08836435,0.0001107,53.2175,263.5733,89.0667,271.0452,3.4962e-05,2.69e-06,0.0,0 STARLINK-5458,1 54764U 22175G   23153.50618524  .00000269  00000-0  34962-4 0  9993,2 54764  53.2175 263.5733 0001107  89.0667 271.0452 15.08836435 25107,6917.891,95.438,540.522,538.99,0.0
54764.0,STARLINK-5458,PAYLOAD,2023-06-02 13:44:17,15.08839298,0.0001025,53.218,263.2744,93.3291,266.7818,-6.0391e-06,-3.84e-06,0.0,0 STARLINK-5458,1 54764U 22175G   23153.57242411 -.00000384  00000-0 -60391-5 0  9994,2 54764  53.2180 263.2744 0001025  93.3291 266.7818 15.08839298 27279,6917.883,95.438,540.457,539.038,0.0
54764.0,STARLINK-5458,PAYLOAD,2023-06-02 16:55:03,15.08840272,9.02e-05,53.2169,262.6774,120.5871,239.521,-8.1701e-06,-4.18e-06,0.0,0 STARLINK-5458,1 54764U 22175G   23153.70490173 -.00000418  00000-0 -81701-5 0  9995,2 54764  53.2169 262.6774 0000902 120.5871 239.5210 15.08840272 27292,6917.88,95.438,540.369,539.121,0.0
54764.0,STARLINK-5458,PAYLOAD,2023-06-03 13:35:04,15.08846405,0.0001002,53.2171,258.8122,123.5289,236.5799,-7.2862e-06,-4.04e-06,0.0,0 STARLINK-5458,1 54764U 22175G   23154.56601897 -.00000404  00000-0 -72862-5 0  9990,2 54764  53.2171 258.8122 0001002 123.5289 236.5799 15.08846405 27425,6917.861,95.437,540.419,539.033,0.0
54764.0,STARLINK-5458,PAYLOAD,2023-06-03 16:45:50,15.0882031,0.00012,53.2171,258.2176,123.5254,236.5853,0.00034671,5.231e-05,0.0,0 STARLINK-5458,1 54764U 22175G   23154.69850439  .00005231  00000-0  34671-3 0  9997,2 54764  53.2171 258.2176 0001200 123.5254 236.5853 15.08820310 25280,6917.941,95.439,540.636,538.975,0.0
54764.0,STARLINK-5458,PAYLOAD,2023-06-04 10:15:05,15.088356,9.42e-05,53.217,254.9469,120.7708,239.3377,6.613e-05,7.65e-06,0.0,0 STARLINK-5458,1 54764U 22175G   23155.42714424  .00000765  00000-0  66130-4 0  9995,2 54764  53.2170 254.9469 0000942 120.7708 239.3377 15.08835600 25394,6917.894,95.438,540.411,539.107,0.0
54764.0,STARLINK-5458,PAYLOAD,2023-06-04 13:25:51,15.08837969,9.38e-05,53.2167,254.3525,113.2643,246.8448,7.4816e-05,9.03e-06,0.0,0 STARLINK-5458,1 54764U 22175G   23155.55962276  .00000903  00000-0  74816-4 0  9993,2 54764  53.2167 254.3525 0000938 113.2643 246.8448 15.08837969 27571,6917.887,95.438,540.4,539.103,0.0
54764.0,STARLINK-5458,PAYLOAD,2023-06-05 13:16:38,15.08842844,7.95e-05,53.2168,249.8953,98.0246,262.0836,0.00010606,1.401e-05,0.0,0 STARLINK-5458,1 54764U 22175G   23156.55322037  .00001401  00000-0  10606-3 0  9999,2 54764  53.2168 249.8953 0000795  98.0246 262.0836 15.08842844 27722,6917.872,95.437,540.287,539.187,0.0
54764.0,STARLINK-5458,PAYLOAD,2023-06-05 14:52:01,15.08847846,8.02e-05,53.2167,249.5975,108.1396,251.9683,5.3798e-05,5.69e-06,0.0,0 STARLINK-5458,1 54764U 22175G   23156.61945849  .00000569  00000-0  53798-4 0  9992,2 54764  53.2167 249.5975 0000802 108.1396 251.9683 15.08847846 25575,6917.856,95.437,540.276,539.167,0.0
54764.0,STARLINK-5458,PAYLOAD,2023-06-06 08:21:16,15.08827427,8.14e-05,53.2168,246.3274,111.6362,248.4717,4.1871e-05,3.79e-06,0.0,0 STARLINK-5458,1 54764U 22175G   23157.34811197  .00000379  00000-0  41871-4 0  9999,2 54764  53.2168 246.3274 0000814 111.6362 248.4717 15.08827427 25682,6917.919,95.438,540.347,539.221,0.0
54764.0,STARLINK-5458,PAYLOAD,2023-06-06 11:32:02,15.08832684,8.58e-05,53.2166,245.733,100.5532,259.5557,2.3917e-05,9.3e-07,0.0,0 STARLINK-5458,1 54764U 22175G   23157.48059001  .00000093  00000-0  23917-4 0  9996,2 54764  53.2166 245.7330 0000858 100.5532 259.5557 15.08832684 27868,6917.903,95.438,540.361,539.174,0.0
54764.0,STARLINK-5458,PAYLOAD,2023-06-06 13:07:26,15.08834297,7.77e-05,53.2168,245.4356,105.3769,254.7309,2.1945e-05,6.2e-07,0.0,0 STARLINK-5458,1 54764U 22175G   23157.54682906  .00000062  00000-0  21945-4 0  9994,2 54764  53.2168 245.4356 0000777 105.3769 254.7309 15.08834297 25716,6917.898,95.438,540.3,539.225,0.0
54764.0,STARLINK-5458,PAYLOAD,2023-06-07 08:12:03,15.08837837,8.45e-05,53.2163,241.867,109.7255,250.3828,3.423e-05,2.57e-06,0.0,0 STARLINK-5458,1 54764U 22175G   23158.34170760  .00000257  00000-0  34230-4 0  9990,2 54764  53.2163 241.8670 0000845 109.7255 250.3828 15.08837837 27997,6917.887,95.438,540.337,539.167,0.0
54764.0,STARLINK-5458,PAYLOAD,2023-06-07 22:30:31,15.08843799,7.02e-05,53.2167,239.191,91.2171,268.8901,4.6981e-05,4.6e-06,0.0,0 STARLINK-5458,1 54764U 22175G   23158.93786353  .00000460  00000-0  46981-4 0  9998,2 54764  53.2167 239.1910 0000702  91.2171 268.8901 15.08843799 25923,6917.869,95.437,540.219,539.248,0.0
54764.0,STARLINK-5458,PAYLOAD,2023-06-08 09:38:14,15.08832772,7.42e-05,53.2165,237.1095,81.0504,279.0572,7.0921e-05,8.41e-06,0.0,0 STARLINK-5458,1 54764U 22175G   23159.40155116  .00000841  00000-0  70921-4 0  9992,2 54764  53.2165 237.1095 0000742  81.0504 279.0572 15.08832772 25998,6917.902,95.438,540.281,539.254,0.0
54764.0,STARLINK-5458,PAYLOAD,2023-06-08 12:49:00,15.08835062,8.33e-05,53.2165,236.5144,80.701,279.4076,0.00013508,1.862e-05,0.0,0 STARLINK-5458,1 54764U 22175G   23159.53402850  .00001862  00000-0  13508-3 0  9997,2 54764  53.2165 236.5144 0000833  80.7010 279.4076 15.08835062 28176,6917.895,95.438,540.337,539.184,0.0
54764.0,STARLINK-5458,PAYLOAD,2023-06-09 11:04:23,15.08859008,8.52e-05,53.2162,232.3506,73.3384,286.7702,-0.00023038,-3.954e-05,0.0,0 STARLINK-5458,1 54764U 22175G   23160.46138615 -.00003954  00000-0 -23038-3 0  9991,2 54764  53.2162 232.3506 0000852  73.3384 286.7702 15.08859008 26151,6917.822,95.436,540.277,539.098,0.0
54764.0,STARLINK-5458,PAYLOAD,2023-06-10 04:33:38,15.08826172,9.84e-05,53.2163,229.0799,85.8105,274.3,0.00018853,2.713e-05,0.0,0 STARLINK-5458,1 54764U 22175G   23161.19003356  .00002713  00000-0  18853-3 0  9994,2 54764  53.2163 229.0799 0000984  85.8105 274.3000 15.08826172 26266,6917.923,95.438,540.468,539.107,0.0
54764.0,STARLINK-5458,PAYLOAD,2023-06-10 10:55:11,15.08828437,9.26e-05,53.2162,227.8909,84.1665,275.9433,0.00018827,2.709e-05,0.0,0 STARLINK-5458,1 54764U 22175G   23161.45499357  .00002709  00000-0  18827-3 0  9999,2 54764  53.2162 227.8909 0000926  84.1665 275.9433 15.08828437 28460,6917.916,95.438,540.421,539.14,0.0
54764.0,STARLINK-5458,PAYLOAD,2023-06-11 10:45:58,15.08840847,9.5e-05,53.2161,223.4293,87.4062,272.7039,6.0332e-05,6.73e-06,0.0,0 STARLINK-5458,1 54764U 22175G   23162.44858816  .00000673  00000-0  60332-4 0  9995,2 54764  53.2161 223.4293 0000950  87.4062 272.7039 15.08840847 26454,6917.878,95.438,540.4,539.086,0.0
54764.0,STARLINK-5458,PAYLOAD,2023-06-12 10:36:44,15.08842258,8.67e-05,53.2162,218.9692,85.5897,274.5194,8.2227e-05,1.021e-05,0.0,0 STARLINK-5458,1 54764U 22175G   23163.44218605  .00001021  00000-0  82227-4 0  9997,2 54764  53.2162 218.9692 0000867  85.5897 274.5194 15.08842258 28765,6917.873,95.437,540.338,539.139,0.0
54764.0,STARLINK-5458,PAYLOAD,2023-06-12 20:09:04,15.08837799,8.36e-05,53.2159,217.1852,81.7169,278.3918,2.439e-05,1e-06,0.0,0 STARLINK-5458,1 54764U 22175G   23163.83963070  .00000100  00000-0  24390-4 0  9997,2 54764  53.2159 217.1852 0000836  81.7169 278.3918 15.08837799 26663,6917.887,95.438,540.33,539.174,0.0
54764.0,STARLINK-5458,PAYLOAD,2023-06-13 04:06:00,15.08833138,9.44e-05,53.2165,215.6996,87.47,272.64,-4.0322e-05,-9.29e-06,0.0,0 STARLINK-5458,1 54764U 22175G   23164.17083657 -.00000929  00000-0 -40322-4 0  9993,2 54764  53.2165 215.6996 0000944  87.4700 272.6400 15.08833138 26718,6917.901,95.438,540.419,539.113,0.0
54764.0,STARLINK-5458,PAYLOAD,2023-06-13 19:59:51,15.0883615,9.62e-05,53.2165,212.7257,85.2357,274.8745,2.36e-06,-2.5e-06,0.0,0 STARLINK-5458,1 54764U 22175G   23164.83323504 -.00000250  00000-0  23600-5 0  9991,2 54764  53.2165 212.7257 0000962  85.2357 274.8745 15.08836150 28973,6917.892,95.438,540.423,539.092,0.0
54764.0,STARLINK-5458,PAYLOAD,2023-06-13 23:10:37,15.08837405,9.75e-05,53.2163,212.1308,85.1212,274.9891,6.8449e-07,-2.77e-06,0.0,0 STARLINK-5458,1 54764U 22175G   23164.96571467 -.00000277  00000-0  68449-6 0  9998,2 54764  53.2163 212.1308 0000975  85.1212 274.9891 15.08837405 26835,6917.888,95.438,540.428,539.079,0.0
54764.0,STARLINK-5458,PAYLOAD,2023-06-14 19:50:38,15.08835625,9.85e-05,53.2163,208.2652,83.979,276.1314,3.2876e-05,2.35e-06,0.0,0 STARLINK-5458,1 54764U 22175G   23165.82683664  .00000235  00000-0  32876-4 0  9993,2 54764  53.2163 208.2652 0000985  83.9790 276.1314 15.08835625 29122,6917.894,95.438,540.44,539.077,0.0
54764.0,STARLINK-5458,PAYLOAD,2023-06-15 10:09:06,15.0883561,9.51e-05,53.2162,205.5883,84.6196,275.4905,9.1683e-05,1.172e-05,0.0,0 STARLINK-5458,1 54764U 22175G   23166.42299676  .00001172  00000-0  91683-4 0  9998,2 54764  53.2162 205.5883 0000951  84.6196 275.4905 15.08835610 27050,6917.894,95.438,540.417,539.101,0.0
54764.0,STARLINK-5458,PAYLOAD,2023-06-15 11:44:29,15.08837698,9.47e-05,53.216,205.2906,82.362,277.748,8.3977e-05,1.049e-05,0.0,0 STARLINK-5458,1 54764U 22175G   23166.48923598  .00001049  00000-0  83977-4 0  9991,2 54764  53.2160 205.2906 0000947  82.3620 277.7480 15.08837698 29225,6917.887,95.438,540.408,539.097,0.0
